{"fetched_at":"2026-07-16T06:43:28.995Z","source":"https://celestrak.org/NORAD/elements/gp.php?NAME=YAM&FORMAT=JSON","constellation":"earthdaily-constellation","records":[{"OBJECT_NAME":"YAM-10","OBJECT_ID":"2025-135BE","EPOCH":"2026-07-15T20:26:55.233024","CLASSIFICATION_TYPE":"U","MEAN_MOTION":14.91902179,"ECCENTRICITY":0.00017754,"INCLINATION":97.7754,"RA_OF_ASC_NODE":310.3105,"ARG_OF_PERICENTER":242.4464,"MEAN_ANOMALY":117.6574,"EPHEMERIS_TYPE":0,"NORAD_CAT_ID":64580,"ELEMENT_SET_NO":999,"REV_AT_EPOCH":5813,"BSTAR":0.000099566596,"MEAN_MOTION_DOT":0.00000951,"MEAN_MOTION_DDOT":0},{"OBJECT_NAME":"YAM-11","OBJECT_ID":"2026-100M","EPOCH":"2026-07-15T15:38:16.449792","CLASSIFICATION_TYPE":"U","MEAN_MOTION":14.90570993,"ECCENTRICITY":0.00096059,"INCLINATION":97.7333,"RA_OF_ASC_NODE":93.4157,"ARG_OF_PERICENTER":359.863,"MEAN_ANOMALY":0.2584,"EPHEMERIS_TYPE":0,"NORAD_CAT_ID":68991,"ELEMENT_SET_NO":999,"REV_AT_EPOCH":1093,"BSTAR":0.000087978653,"MEAN_MOTION_DOT":0.00000806,"MEAN_MOTION_DDOT":0},{"OBJECT_NAME":"YAM-16","OBJECT_ID":"2026-100N","EPOCH":"2026-07-15T06:16:42.636576","CLASSIFICATION_TYPE":"U","MEAN_MOTION":14.91515184,"ECCENTRICITY":0.00047184,"INCLINATION":97.7337,"RA_OF_ASC_NODE":93.1617,"ARG_OF_PERICENTER":62.1205,"MEAN_ANOMALY":298.0491,"EPHEMERIS_TYPE":0,"NORAD_CAT_ID":68992,"ELEMENT_SET_NO":999,"REV_AT_EPOCH":1088,"BSTAR":0.000096889912,"MEAN_MOTION_DOT":0.00000915,"MEAN_MOTION_DDOT":0},{"OBJECT_NAME":"YAM-13","OBJECT_ID":"2026-100P","EPOCH":"2026-07-15T12:57:24.948576","CLASSIFICATION_TYPE":"U","MEAN_MOTION":14.90411241,"ECCENTRICITY":0.0009571,"INCLINATION":97.7336,"RA_OF_ASC_NODE":93.4113,"ARG_OF_PERICENTER":357.5747,"MEAN_ANOMALY":2.5423,"EPHEMERIS_TYPE":0,"NORAD_CAT_ID":68993,"ELEMENT_SET_NO":999,"REV_AT_EPOCH":1092,"BSTAR":0.000086699686,"MEAN_MOTION_DOT":0.0000079,"MEAN_MOTION_DDOT":0},{"OBJECT_NAME":"YAM-15","OBJECT_ID":"2026-100T","EPOCH":"2026-07-15T15:51:13.756032","CLASSIFICATION_TYPE":"U","MEAN_MOTION":14.90654036,"ECCENTRICITY":0.00093671,"INCLINATION":97.7327,"RA_OF_ASC_NODE":93.5543,"ARG_OF_PERICENTER":10.7245,"MEAN_ANOMALY":349.4171,"EPHEMERIS_TYPE":0,"NORAD_CAT_ID":68997,"ELEMENT_SET_NO":999,"REV_AT_EPOCH":1094,"BSTAR":0.000092759678,"MEAN_MOTION_DOT":0.00000855,"MEAN_MOTION_DDOT":0},{"OBJECT_NAME":"YAM-12","OBJECT_ID":"2026-100Z","EPOCH":"2026-07-15T12:00:45.603648","CLASSIFICATION_TYPE":"U","MEAN_MOTION":14.90453625,"ECCENTRICITY":0.0009811,"INCLINATION":97.7309,"RA_OF_ASC_NODE":93.286,"ARG_OF_PERICENTER":349.2376,"MEAN_ANOMALY":10.8631,"EPHEMERIS_TYPE":0,"NORAD_CAT_ID":69003,"ELEMENT_SET_NO":999,"REV_AT_EPOCH":1090,"BSTAR":0.00020662505,"MEAN_MOTION_DOT":0.00001961,"MEAN_MOTION_DDOT":0},{"OBJECT_NAME":"YAM-14","OBJECT_ID":"2026-100AE","EPOCH":"2026-07-15T23:07:21.990144","CLASSIFICATION_TYPE":"U","MEAN_MOTION":14.90348917,"ECCENTRICITY":0.00060751,"INCLINATION":97.7315,"RA_OF_ASC_NODE":93.7611,"ARG_OF_PERICENTER":35.2292,"MEAN_ANOMALY":324.9327,"EPHEMERIS_TYPE":0,"NORAD_CAT_ID":69008,"ELEMENT_SET_NO":999,"REV_AT_EPOCH":1097,"BSTAR":0.000069355001,"MEAN_MOTION_DOT":0.0000062,"MEAN_MOTION_DDOT":0}]}
