YAM-10                  
1 64580U 25135BE  26196.85202816  .00000951  00000+0  99567-4 0  9999
2 64580  97.7754 310.3105 0001775 242.4464 117.6574 14.91902179 58134
YAM-11                  
1 68991U 26100M   26196.65157928  .00000806  00000+0  87979-4 0  9996
2 68991  97.7333  93.4157 0009605 359.8630   0.2584 14.90570993 10939
YAM-16                  
1 68992U 26100N   26196.26160459  .00000915  00000+0  96890-4 0  9990
2 68992  97.7337  93.1617 0004718  62.1205 298.0491 14.91515184 10884
YAM-13                  
1 68993U 26100P   26196.53987209  .00000790  00000+0  86700-4 0  9991
2 68993  97.7336  93.4113 0009571 357.5747   2.5423 14.90411241 10928
YAM-15                  
1 68997U 26100T   26196.66057588  .00000855  00000+0  92760-4 0  9992
2 68997  97.7327  93.5543 0009367  10.7245 349.4171 14.90654036 10940
YAM-12                  
1 69003U 26100Z   26196.50052782  .00001961  00000+0  20663-3 0  9996
2 69003  97.7309  93.2860 0009811 349.2376  10.8631 14.90453625 10904
YAM-14                  
1 69008U 26100AE  26196.96344896  .00000620  00000+0  69355-4 0  9994
2 69008  97.7315  93.7611 0006075  35.2292 324.9327 14.90348917 10978
